{
  "norad_id": 68779,
  "name": "STARLINK-37391",
  "history": [
    {
      "epoch": "2026-04-27T19:29:12.251040Z",
      "apogee_km": 289.9380779446392,
      "perigee_km": 287.5593331249047,
      "latitude_deg": 7.911764105426784e-05,
      "longitude_deg": 5.164350290691716,
      "height_km": 290.7549065151996,
      "semi_major_axis_km": 6666.885705534772,
      "eccentricity": 0.0001784,
      "inclination_deg": 97.2784,
      "raan_deg": 153.2618,
      "arg_perigee_deg": 357.717,
      "mean_anomaly_deg": 2.4098,
      "mean_motion_rev_day": 15.94844141
    }
  ]
}