STARLINK-37391          
1 68779U 26086P   26117.81194735 -.00709227  16340-3 -18581-2 0  9995
2 68779  97.2784 153.2618 0001784 357.7170   2.4098 15.94844141  1221
